
BRITE-AUSTRIA
1 39091U 13009F   26170.29768615  .00000120  00000+0  55501-4 0  9997
2 39091  98.3996 349.6811 0009231 229.4697 130.5686 14.36542792697356

CASSIOPE
1 39265U 13055A   26170.26127908  .00046101 -46103-6  50203-3 0  9996
2 39265  80.9136  64.2027 0292110  55.4962 307.3484 15.25366701667982

CLUSTER II-FM7 (SAMBA)
1 26410U 00041A   26172.60119800  .00004700  00000+0  00000+0 0  9990
2 26410 149.9156  51.6296 9060156 268.8489 359.5243  0.44827446 20328

CLUSTER II-FM8 (TANGO)
1 26464U 00045B   26166.18760269  .00011725  00000+0  00000+0 0  9995
2 26464 150.1504  51.7507 9057004 268.7261   2.8044  0.44418308 20307

CORIOLIS
1 27640U 03001A   26170.31113275  .00000065  00000+0  51281-4 0  9993
2 27640  98.7125 177.1635 0013502 202.3818 157.6771 14.19945297214527

CRYOSAT 2
1 36508U 10013A   26170.28695371  .00000188  00000+0  45910-4 0  9993
2 36508  92.0357 277.8118 0002136  90.5107 269.6345 14.51899894858383

CXO
1 25867U 99040B   26172.02247085  .00000453  00000+0  00000+0 0  9996
2 25867  56.2474 116.4966 7828329 310.2765   0.2930  0.37807394 17333

FGRST (GLAST)
1 33053U 08029A   26170.25841335  .00002185  00000+0  74273-4 0  9992
2 33053  25.5803 190.1000 0007962 354.0771   5.9672 15.23953038996159

GCOM-W1 (SHIZUKU)
1 38337U 12025A   26170.30402024  .00000347  00000+0  87125-4 0  9995
2 38337  98.2021 110.8276 0001758  73.8217  14.3998 14.57126275749343

HINODE (SOLAR-B)
1 29479U 06041A   26170.29745718  .00000511  00000+0  96287-4 0  9993
2 29479  98.0545 186.4188 0015970 282.4723  77.4695 14.68625500 55184

HISAKI (SPRINT-A)
1 39253U 13049A   26170.26471719  .00000101  00000+0  52487-4 0  9993
2 39253  29.7178 209.4503 0136848  33.6977 327.2209 13.55544904631708

HST
1 20580U 90037B   26170.09908245  .00005359  00000+0  16756-3 0  9996
2 20580  28.4721  67.5085 0001723 162.4358 197.6298 15.30765373788863

IRIS
1 39197U 13033A   26170.05042755  .00000753  00000+0  92429-4 0  9997
2 39197  97.9329   9.3216 0023414 315.4826  44.4508 14.85888192700651

MOST
1 27843U 03031D   26169.90080730  .00000036  00000+0  36437-4 0  9997
2 27843  98.7044 177.6029 0008779 244.9079 115.1187 14.21322738190957

NEOSSAT
1 39089U 13009D   26170.09105086  .00000101  00000+0  49555-4 0  9990
2 39089  98.4178 350.0784 0009955 237.4333 122.5892 14.35826971697016

NUSTAR
1 38358U 12031A   26170.33335648  .00003090  00000+0  13792-3 0  9991
2 38358   6.0286  18.0463 0006924 149.6464 108.0545 15.08821917  1307

ODIN
1 26702U 01007A   26170.06268120  .00155995  00000+0  97537-3 0  9993
2 26702  97.3817 211.1262 0006654 141.9778 218.1959 15.76368070389690

POLAR
1 23802U 96013A   26168.80723713  .00000114  00000+0  00000+0 0  9992
2 23802  79.8548 227.0450 6471047 209.0570  89.8865  1.29846132144863

SCISAT 1
1 27858U 03036A   26170.11646539  .00000386  00000+0  53975-4 0  9992
2 27858  73.9283 167.5095 0008488 237.4057 122.6301 14.81449163231735

SDO
1 36395U 10005A   26168.41002763 -.00000096  00000+0  00000+0 0  9992
2 36395  34.6527  86.3378 0001734  44.0102 180.8312  1.00269958 60061

SHIJIAN-6 02A (SJ-6 02A)
1 29505U 06046A   26170.26838481  .00003193  00000+0  16527-3 0  9992
2 29505  97.6348 211.3509 0004486 121.3358 238.8314 15.16958644 72586

SHIJIAN-6 02B (SJ-6 02B)
1 29506U 06046B   26170.34574291  .00000819  00000+0  68083-4 0  9995
2 29506  97.7152 199.3915 0015417  54.3304 305.9353 15.01381082 71060

SORCE
1 27651U 03004A   26170.26479446  .00001999  00000+0  15381-3 0  9994
2 27651  39.9900 249.8247 0016228  65.0499 295.1979 15.03721648272214

STSAT-3
1 39422U 13066G   26170.24352609  .00002936  00000+0  22382-3 0  9992
2 39422  97.6229 140.0989 0011100  39.4906 320.7126 15.02767840684517

SWARM B
1 39451U 13067A   26170.29425033  .00002791  00000+0  99215-4 0  9991
2 39451  87.7442 341.6760 0003246  84.6645 275.4975 15.28562245683568

SWAS
1 25560U 98071A   26170.26854199  .00002184  00000+0  14193-3 0  9998
2 25560  69.8943 222.1517 0008663 257.7487 102.2708 15.09635044497582

SWIFT
1 28485U 04047A   26170.28587369  .00045354  00000+0  37378-3 0  9997
2 28485  20.5512 168.7076 0001425 322.3693  37.6653 15.68495737187190

TERRA
1 25994U 99068A   26170.28977175  .00000282  00000+0  66439-4 0  9996
2 25994  97.9455 219.7527 0001757 182.5355 303.4138 14.61104555409919

TIMED
1 26998U 01055B   26170.21603350  .00000771  00000+0  73528-4 0  9994
2 26998  74.0672 230.9336 0001231 332.2181  27.8938 14.95297974331129

X-SAT
1 37389U 11015C   26170.26147926  .00000290  00000+0  14078-3 0  9994
2 37389  98.3514 147.1865 0013782 342.5392  17.5312 14.25207625787974

XMM-NEWTON
1 25989U 99066A   26171.34141683 -.00000033  00000+0  00000+0 0  9995
2 25989  64.4680 282.9447 4672330  64.8598   0.1279  0.50127883 23013
